[{"OBJECT_NAME":"STARLINK-4153","OBJECT_ID":"2022-076BD","EPOCH":"2026-03-09T06:41:51.426816","MEAN_MOTION":15.08840886,"ECCENTRICITY":0.000124,"INCLINATION":53.2173,"RA_OF_ASC_NODE":75.9618,"ARG_OF_PERICENTER":83.7396,"MEAN_ANOMALY":276.3738,"EPHEMERIS_TYPE":0,"CLASSIFICATION_TYPE":"U","NORAD_CAT_ID":53037,"ELEMENT_SET_NO":999,"REV_AT_EPOCH":20306,"BSTAR":4.033351e-5,"MEAN_MOTION_DOT":3.54e-6,"MEAN_MOTION_DDOT":0},{"OBJECT_NAME":"CZ-4B DEB","OBJECT_ID":"2008-053J","EPOCH":"2026-03-09T11:59:22.469568","MEAN_MOTION":15.1637526,"ECCENTRICITY":0.00601661,"INCLINATION":97.7872,"RA_OF_ASC_NODE":170.5072,"ARG_OF_PERICENTER":304.792,"MEAN_ANOMALY":54.7659,"EPHEMERIS_TYPE":0,"CLASSIFICATION_TYPE":"U","NORAD_CAT_ID":35573,"ELEMENT_SET_NO":999,"REV_AT_EPOCH":91868,"BSTAR":0.0017688276,"MEAN_MOTION_DOT":0.00036031,"MEAN_MOTION_DDOT":0}]
